COSMOS 2433 (720)       
1 32275C 07052A   22328.99979167  .00000000  00000-0  00000-0 0  3283
2 32275  66.0702 359.3437 0005229 248.6769  57.9976  2.13103904    13
COSMOS 2432 (719)       
1 32276C 07052B   22328.99979167  .00000000  00000-0  00000-0 0  3284
2 32276  66.0841 359.4475 0010679 313.7573 300.7658  2.13103003    19
COSMOS 2434 (721)       
1 32393C 07065A   22328.99979167  .00000000  00000-0  00000-0 0  3288
2 32393  64.3611 235.9510 0003025  69.7073 127.0752  2.13102880    10
COSMOS 2436 (723)       
1 32395C 07065C   22328.99979167  .00000000  00000-0  00000-0 0  3280
2 32395  64.3698 236.0097 0016483   1.4665 331.0564  2.13102508    16
COSMOS 2456 (730)       
1 36111C 09070A   22328.99979167 -.00000000  00000-0  00000-0 0  3289
2 36111  64.3986 115.5406 0001364 318.3619  41.7686  2.13098918    11
COSMOS 2457 (733)       
1 36112C 09070B   22328.99979167 -.00000000  00000-0  00000-0 0  3280
2 36112  64.3821 115.4125 0006711 153.9689 334.7230  2.13100997    19
COSMOS 2559 (707K)      
1 54031C 22130A   22328.99979167  .00000000  00000-0  00000-0 0  3281
2 54031  64.7783   0.0711 0007655 229.6194 339.5086  2.13101089    15
COSMOS 2460 (732)       
1 36402C 10007C   22328.99979167  .00000000  00000-0  00000-0 0  3283
2 36402  65.9390 358.1062 0002295 257.8239 216.0281  2.13106208    12
COSMOS 2476 (744)       
1 37867C 11064A   22328.99979167 -.00000000  00000-0  00000-0 0  3284
2 37867  64.6843 116.9591 0021139 230.3526  36.6400  2.13101563    15
COSMOS 2477 (745)       
1 37868C 11064B   22328.99979167 -.00000000  00000-0  00000-0 0  3285
2 37868  64.6919 117.0256 0018479 230.4289 214.6012  2.13101362    14
COSMOS 2475 (743)       
1 37869C 11064C   22328.99979167 -.00000000  00000-0  00000-0 0  3286
2 37869  64.6991 117.0352 0022079 249.8345 153.3893  2.13101626    19
COSMOS 2485 (747)       
1 39155C 13019A   22328.99979167 -.00000000  00000-0  00000-0 0  3288
2 39155  64.8470 117.4220 0021738 226.2452  85.1522  2.13101627    12
COSMOS 2492 (754)       
1 39620C 14012A   22328.99979167  .00000000  00000-0  00000-0 0  3288
2 39620  65.8245 357.7649 0013950 312.8308  32.8909  2.13102985    19
COSMOS 2500 (755)       
1 40001C 14032A   22328.99979167  .00000000  00000-0  00000-0 0  3285
2 40001  65.7636 357.6141 0008141 216.4978 347.4230  2.13102077    15
COSMOS 2501 (702K)      
1 40315C 14075A   22328.99979167  .00000000  00000-0  00000-0 0  3280
2 40315  63.6666 235.5541 0017631 208.6330 164.0671  2.13101132    13
COSMOS 2514 (751)       
1 41330C 16008A   22328.99979167  .00000000  00000-0  00000-0 0  3286
2 41330  65.5628 357.2660 0012071 220.5794 167.4683  2.13102522    18
COSMOS 2522 (752)       
1 42939C 17055A   22328.99979167  .00000000  00000-0  00000-0 0  3285
2 42939  64.1266 236.3175 0006945 245.5154 262.7125  2.13101902    16
COSMOS 2527 (756)       
1 43508C 18053A   22328.99979167 -.00000000  00000-0  00000-0 0  3288
2 43508  65.0094 117.4555 0007859 214.3843 325.8769  2.13102146    19
COSMOS 2529 (757)       
1 43687C 18086A   22328.99979167  .00000000  00000-0  00000-0 0  3281
2 43687  64.3418 236.6769 0009016 270.3992 193.3285  2.13101992    13
COSMOS 2534 (758)       
1 44299C 19030A   22328.99979167  .00000000  00000-0  00000-0 0  3281
2 44299  64.4139 236.5766 0011935 290.9889 307.1570  2.13101569    18
COSMOS 2544 (759)       
1 44850C 19088A   22328.99979167 -.00000000  00000-0  00000-0 0  3288
2 44850  64.9949 117.3043 0011141 249.5142 334.0780  2.13101973    11
COSMOS 2545 (760)       
1 45358C 20018A   22328.99979167  .00000000  00000-0  00000-0 0  3286
2 45358  64.9019 357.7425 0011527 249.2716 183.5981  2.13102500    16
COSMOS 2547 (705K)      
1 46805C 20075A   22328.99979167  .00000000  00000-0  00000-0 0  3287
2 46805  64.6392 236.0485 0006528 247.5790  38.8048  2.13102633    11
COSMOS 2557 (706K)      
1 52984C 20075A   22328.99979167  .00000000  00000-0  00000-0 0  3282
2 52984  64.8077 359.9335 0013614 278.8798 244.8945  2.13101572    12
